[
    {
        "Altitude(m)": 557534.7354332675,
        "Argument of Periapsis(deg)": 0.019868973332140504,
        "Eccentricity": 0.0,
        "Inclination(deg)": 53.0,
        "Latitude(deg)": -15.534044305297998,
        "Longitude(deg)": -145.3567948976312,
        "Mean Anomaly(deg)": 199.36577860273275,
        "RAAN(deg)": 124.97043010558407,
        "Satellite Name": "Starlink Shell 1 560",
        "Satellite Number": 560,
        "Semi-Major Axis(m)": 6931778.249405717,
        "Time(s)": 570
    },
    {
        "Altitude(m)": 557677.5173199925,
        "Argument of Periapsis(deg)": 0.02021755181165174,
        "Eccentricity": 0.0,
        "Inclination(deg)": 53.0,
        "Latitude(deg)": -16.025798634794196,
        "Longitude(deg)": -144.99188711343638,
        "Mean Anomaly(deg)": 199.99260980628947,
        "RAAN(deg)": 124.96991133550657,
        "Satellite Name": "Starlink Shell 1 560",
        "Satellite Number": 560,
        "Semi-Major Axis(m)": 6931778.249405717,
        "Time(s)": 580
    },
    {
        "Altitude(m)": 557822.1783624147,
        "Argument of Periapsis(deg)": 0.020566130291162974,
        "Eccentricity": 0.0,
        "Inclination(deg)": 53.0,
        "Latitude(deg)": -16.51674401301736,
        "Longitude(deg)": -144.62499905948803,
        "Mean Anomaly(deg)": 200.61944100984618,
        "RAAN(deg)": 124.96939256542912,
        "Satellite Name": "Starlink Shell 1 560",
        "Satellite Number": 560,
        "Semi-Major Axis(m)": 6931778.249405717,
        "Time(s)": 590
    },
    {
        "Altitude(m)": 557968.6708600526,
        "Argument of Periapsis(deg)": 0.020914708770674213,
        "Eccentricity": 0.0,
        "Inclination(deg)": 53.0,
        "Latitude(deg)": -17.006850958189855,
        "Longitude(deg)": -144.25605977759574,
        "Mean Anomaly(deg)": 201.2462722134029,
        "RAAN(deg)": 124.96887379535164,
        "Satellite Name": "Starlink Shell 1 560",
        "Satellite Number": 560,
        "Semi-Major Axis(m)": 6931778.249405717,
        "Time(s)": 600
    },
    {
        "Altitude(m)": 558116.946147592,
        "Argument of Periapsis(deg)": 0.021263287250185448,
        "Eccentricity": 0.0,
        "Inclination(deg)": 53.0,
        "Latitude(deg)": -17.496089538276372,
        "Longitude(deg)": -143.88499745554665,
        "Mean Anomaly(deg)": 201.8731034169596,
        "RAAN(deg)": 124.96835502527416,
        "Satellite Name": "Starlink Shell 1 560",
        "Satellite Number": 560,
        "Semi-Major Axis(m)": 6931778.249405717,
        "Time(s)": 610
    },
    {
        "Altitude(m)": 558266.9546163135,
        "Argument of Periapsis(deg)": 0.021611865729696686,
        "Eccentricity": 0.0,
        "Inclination(deg)": 53.0,
        "Latitude(deg)": -17.984429352838344,
        "Longitude(deg)": -143.51173889648706,
        "Mean Anomaly(deg)": 202.49993462051634,
        "RAAN(deg)": 124.96783625519669,
        "Satellite Name": "Starlink Shell 1 560",
        "Satellite Number": 560,
        "Semi-Major Axis(m)": 6931778.249405717,
        "Time(s)": 620
    },
    {
        "Altitude(m)": 558418.6457359956,
        "Argument of Periapsis(deg)": 0.02196044420920792,
        "Eccentricity": 0.0,
        "Inclination(deg)": 53.0,
        "Latitude(deg)": -18.471839514483346,
        "Longitude(deg)": -143.13621066944393,
        "Mean Anomaly(deg)": 203.12676582407306,
        "RAAN(deg)": 124.96731748511924,
        "Satellite Name": "Starlink Shell 1 560",
        "Satellite Number": 560,
        "Semi-Major Axis(m)": 6931778.249405717,
        "Time(s)": 630
    },
    {
        "Altitude(m)": 558571.9680772689,
        "Argument of Periapsis(deg)": 0.02230902268871916,
        "Eccentricity": 0.0,
        "Inclination(deg)": 53.0,
        "Latitude(deg)": -18.958288629907337,
        "Longitude(deg)": -142.75833773859597,
        "Mean Anomaly(deg)": 203.75359702762978,
        "RAAN(deg)": 124.96679871504173,
        "Satellite Name": "Starlink Shell 1 560",
        "Satellite Number": 560,
        "Semi-Major Axis(m)": 6931778.249405717,
        "Time(s)": 640
    },
    {
        "Altitude(m)": 558726.8693343624,
        "Argument of Periapsis(deg)": 0.022657601168230398,
        "Eccentricity": 0.0,
        "Inclination(deg)": 53.0,
        "Latitude(deg)": -19.443744780507863,
        "Longitude(deg)": -142.37804461425347,
        "Mean Anomaly(deg)": 204.38042823118653,
        "RAAN(deg)": 124.96627994496428,
        "Satellite Name": "Starlink Shell 1 560",
        "Satellite Number": 560,
        "Semi-Major Axis(m)": 6931778.249405717,
        "Time(s)": 650
    },
    {
        "Altitude(m)": 558883.2963483423,
        "Argument of Periapsis(deg)": 0.023006179647741636,
        "Eccentricity": 0.0,
        "Inclination(deg)": 53.0,
        "Latitude(deg)": -19.92817550256526,
        "Longitude(deg)": -141.99525482316557,
        "Mean Anomaly(deg)": 205.00725943474322,
        "RAAN(deg)": 124.96576117488681,
        "Satellite Name": "Starlink Shell 1 560",
        "Satellite Number": 560,
        "Semi-Major Axis(m)": 6931778.249405717,
        "Time(s)": 660
    },
    {
        "Altitude(m)": 559041.1951307019,
        "Argument of Periapsis(deg)": 0.023354758127252868,
        "Eccentricity": 0.0,
        "Inclination(deg)": 53.0,
        "Latitude(deg)": -20.411547766978305,
        "Longitude(deg)": -141.60989037917938,
        "Mean Anomaly(deg)": 205.63409063829988,
        "RAAN(deg)": 124.96524240480933,
        "Satellite Name": "Starlink Shell 1 560",
        "Satellite Number": 560,
        "Semi-Major Axis(m)": 6931778.249405717,
        "Time(s)": 670
    },
    {
        "Altitude(m)": 559200.5108873982,
        "Argument of Periapsis(deg)": 0.023703336606764106,
        "Eccentricity": 0.0,
        "Inclination(deg)": 53.0,
        "Latitude(deg)": -20.893827958540857,
        "Longitude(deg)": -141.22187276718336,
        "Mean Anomaly(deg)": 206.26092184185663,
        "RAAN(deg)": 124.96472363473185,
        "Satellite Name": "Starlink Shell 1 560",
        "Satellite Number": 560,
        "Semi-Major Axis(m)": 6931778.249405717,
        "Time(s)": 680
    },
    {
        "Altitude(m)": 559361.1880432292,
        "Argument of Periapsis(deg)": 0.024051915086275345,
        "Eccentricity": 0.0,
        "Inclination(deg)": 53.0,
        "Latitude(deg)": -21.374981854755255,
        "Longitude(deg)": -140.83112241464966,
        "Mean Anomaly(deg)": 206.88775304541338,
        "RAAN(deg)": 124.9642048646544,
        "Satellite Name": "Starlink Shell 1 560",
        "Satellite Number": 560,
        "Semi-Major Axis(m)": 6931778.249405717,
        "Time(s)": 690
    },
    {
        "Altitude(m)": 559523.17026662,
        "Argument of Periapsis(deg)": 0.024400493565786583,
        "Eccentricity": 0.0,
        "Inclination(deg)": 53.0,
        "Latitude(deg)": -21.854974604170295,
        "Longitude(deg)": -140.4375581637188,
        "Mean Anomaly(deg)": 207.51458424897007,
        "RAAN(deg)": 124.9636860945769,
        "Satellite Name": "Starlink Shell 1 560",
        "Satellite Number": 560,
        "Semi-Major Axis(m)": 6931778.249405717,
        "Time(s)": 700
    },
    {
        "Altitude(m)": 559686.4004947514,
        "Argument of Periapsis(deg)": 0.024749072045297815,
        "Eccentricity": 0.0,
        "Inclination(deg)": 53.0,
        "Latitude(deg)": -22.333770704232855,
        "Longitude(deg)": -140.04109825677693,
        "Mean Anomaly(deg)": 208.14141545252681,
        "RAAN(deg)": 124.96316732449945,
        "Satellite Name": "Starlink Shell 1 560",
        "Satellite Number": 560,
        "Semi-Major Axis(m)": 6931778.249405717,
        "Time(s)": 710
    },
    {
        "Altitude(m)": 559850.820959056,
        "Argument of Periapsis(deg)": 0.025097650524809053,
        "Eccentricity": 0.0,
        "Inclination(deg)": 53.0,
        "Latitude(deg)": -22.81133397864991,
        "Longitude(deg)": -139.6416598098585,
        "Mean Anomaly(deg)": 208.7682466560835,
        "RAAN(deg)": 124.96264855442197,
        "Satellite Name": "Starlink Shell 1 560",
        "Satellite Number": 560,
        "Semi-Major Axis(m)": 6931778.249405717,
        "Time(s)": 720
    },
    {
        "Altitude(m)": 560016.3732110204,
        "Argument of Periapsis(deg)": 0.02544622900432029,
        "Eccentricity": 0.0,
        "Inclination(deg)": 53.0,
        "Latitude(deg)": -23.287627554251557,
        "Longitude(deg)": -139.2391582868382,
        "Mean Anomaly(deg)": 209.39507785964022,
        "RAAN(deg)": 124.9621297843445,
        "Satellite Name": "Starlink Shell 1 560",
        "Satellite Number": 560,
        "Semi-Major Axis(m)": 6931778.249405717,
        "Time(s)": 730
    },
    {
        "Altitude(m)": 560182.9981483305,
        "Argument of Periapsis(deg)": 0.02579480748383153,
        "Eccentricity": 0.0,
        "Inclination(deg)": 53.0,
        "Latitude(deg)": -23.762613837345747,
        "Longitude(deg)": -138.83350848738328,
        "Mean Anomaly(deg)": 210.021909063197,
        "RAAN(deg)": 124.96161101426702,
        "Satellite Name": "Starlink Shell 1 560",
        "Satellite Number": 560,
        "Semi-Major Axis(m)": 6931778.249405717,
        "Time(s)": 740
    },
    {
        "Altitude(m)": 560350.6360413308,
        "Argument of Periapsis(deg)": 0.026143385963342765,
        "Eccentricity": 0.0,
        "Inclination(deg)": 53.0,
        "Latitude(deg)": -24.23625448956504,
        "Longitude(deg)": -138.42462402302235,
        "Mean Anomaly(deg)": 210.6487402667537,
        "RAAN(deg)": 124.96109224418957,
        "Satellite Name": "Starlink Shell 1 560",
        "Satellite Number": 560,
        "Semi-Major Axis(m)": 6931778.249405717,
        "Time(s)": 750
    }
]